OBJECT_NAME,OBJECT_ID,EPOCH,MEAN_MOTION,ECCENTRICITY,INCLINATION,RA_OF_ASC_NODE,ARG_OF_PERICENTER,MEAN_ANOMALY,EPHEMERIS_TYPE,CLASSIFICATION_TYPE,NORAD_CAT_ID,ELEMENT_SET_NO,REV_AT_EPOCH,BSTAR,MEAN_MOTION_DOT,MEAN_MOTION_DDOT
HAWK-6B,2023-011A,2026-07-07T12:15:08.701632,15.23109588,.0003026,40.4971,233.5181,198.0696,162.0006,0,U,55324,999,19094,.1204E-3,.2705E-4,0
HAWK-6C,2023-011C,2026-07-07T12:14:15.043776,15.23109837,.0003395,40.4958,230.3577,184.7750,175.3028,0,U,55326,999,19095,.12945E-3,.2923E-4,0
HAWK-6A,2023-011D,2026-07-07T12:14:17.913120,15.23110974,.0002933,40.4968,231.9843,183.2670,176.8121,0,U,55327,999,19095,.12864E-3,.2904E-4,0
HAWK-7A,2023-054P,2026-07-07T08:28:24.478176,15.27577059,.000233,97.2674,75.1775,6.4575,353.6694,0,U,56191,999,18010,.15193E-3,.4025E-4,0
HAWK-7B,2023-054R,2026-07-07T03:45:19.090080,15.27578846,.0002208,97.2702,73.2569,31.2593,328.8778,0,U,56193,999,18007,.16063E-3,.4259E-4,0
HAWK-7C,2023-054Y,2026-07-06T18:19:11.400096,15.27574338,.0001922,97.2677,73.6361,19.6555,340.4758,0,U,56200,999,18001,.18249E-3,.4848E-4,0
